[{"OBJECT_NAME":"STARLINK-31073","OBJECT_ID":"2024-011J","EPOCH":"2026-03-09T23:30:04.766112","MEAN_MOTION":15.30197119,"ECCENTRICITY":0.00014483,"INCLINATION":53.1616,"RA_OF_ASC_NODE":12.3967,"ARG_OF_PERICENTER":99.5145,"MEAN_ANOMALY":260.602,"EPHEMERIS_TYPE":0,"CLASSIFICATION_TYPE":"U","NORAD_CAT_ID":58773,"ELEMENT_SET_NO":999,"REV_AT_EPOCH":12031,"BSTAR":4.4686768e-5,"MEAN_MOTION_DOT":9.64e-6,"MEAN_MOTION_DDOT":0},{"OBJECT_NAME":"TEVEL2-6","OBJECT_ID":"2025-052F","EPOCH":"2026-03-09T15:35:24.554400","MEAN_MOTION":15.30760889,"ECCENTRICITY":0.0004769,"INCLINATION":97.4016,"RA_OF_ASC_NODE":325.0381,"ARG_OF_PERICENTER":95.6604,"MEAN_ANOMALY":264.5181,"EPHEMERIS_TYPE":0,"CLASSIFICATION_TYPE":"U","NORAD_CAT_ID":63215,"ELEMENT_SET_NO":999,"REV_AT_EPOCH":5486,"BSTAR":0.00070909,"MEAN_MOTION_DOT":0.00021046,"MEAN_MOTION_DDOT":0}]
